LYNK TOWER 4            
1 55034U 23001AB  26068.67743801  .00009160  00000+0  30014-3 0  9997
2 55034  97.3324 128.5940 0010321 112.3386 247.8950 15.31819885176588
STARLINK-31024          
1 58786U 24011X   26068.26762167 -.00000139  00000+0  74227-5 0  9991
2 58786  53.1619  13.6627 0001160  88.5246 271.5888 15.30191356120238
